#dP2023 11 24  6  0  0.00000000      96 __u+U IGS20 EXT  IAC
## 2289 453600.00000000   900.00000000 60272 0.2500000000000
+  118   C06C07C08C09C10C11C12C13C14C16C19C20C21C22C23C24C25
+        C26C27C28C29C30C32C33C34C35C36C37C38C39C40C41C42C43
+        C44C45C46E02E03E04E05E07E08E09E10E11E12E13E15E19E21
+        E24E25E26E27E30E31E33E34E36G01G02G03G04G05G06G07G08
+        G09G10G11G12G13G14G15G16G17G18G19G20G21G22G23G24G25
+        G26G27G28G29G30G31G32J02J03J04R01R02R03R04R05R07R08
+        R09R11R12R13R14R15R16R17R18R19R20R21R22R24R25R26  0
++        10 11 11 10 10  9  9 11  9  9  9  9  8  9  9  8  8
++         9  9  9  9  9  8  9  9  9  8  9 10  9  8  8 10  8
++        10  8  9  8  8  8  8  8  9  8  8  8  9  8  8  8  9
++         9  8  8  8  8  9  8  8  8  8  8  8  9  8  8  8  8
++         8  8  8  8  8  8  8  8  8  7  8  8  8 10  8  8  8
++         8  8  8  8  7  8  8  8  9 10  9  9  8  8  8  9  9
++         8  8  8  8  8  8  9  9  9  9  9  8 10  8  9  9  0
%c M  cc GPS ccc cccc cccc cccc cccc ccccc ccccc ccccc ccccc
%c cc cc ccc ccc cccc cccc cccc cccc ccccc ccccc ccccc ccccc
%f  0.0000000  0.000000000  0.00000000000  0.000000000000000
%f  0.0000000  0.000000000  0.00000000000  0.000000000000000
%i    0    0    0    0      0      0      0      0         0
%i    0    0    0    0      0      0      0      0         0
/* IAC                                ULTRA-RAPID PREDICTION
/* S/V CLOCKS ARE ALIGNED TO GNSS TIME                      
/* G:C1WC2W R:C1PC2P E:C1XC5X C:C2IC6I J:C1CC2S             
/* PCV:IGS20_2287 OL/AL:FES2004  NONE     YN ORB:CoN CLK:CoN
*  2023 11 25  2 15  0.00000000
PC06  -3348.431633  37707.527720  18884.420062     39.086183
PC07 -10943.499938  25975.300572 -31304.948571   -371.866701
PC08 -18824.572582  34183.595979  15690.892849    220.520061
PC09   2346.794105  41257.934106  10250.091854   -132.874547
PC10  -1127.515388  27269.253893 -31797.438069    -29.387089
PC11  13084.253984  24518.320700  -2338.490980    273.253229
PC12  -1313.069401  20940.614141 -18346.418918    847.359457
PC13 -12862.436878  34499.694452  20436.984442    387.246704
PC14  11632.191514  13808.012321  21272.749331    851.169814
PC16  -5344.728776  35993.875399  21819.429409   -192.627957
PC19 -20748.706452  -9616.422424 -15985.362600   -963.303290
PC20  -2776.762701 -15471.015056 -23054.807614     87.019274
PC21 -18567.761727  12427.884703  16737.400818   -970.070538
PC22 -27832.657190   2045.271036    664.878087   -211.940367
PC23  18636.850735  -4473.891227 -20288.071516   -815.103358
PC24  -4521.028526  25537.505706 -10281.929479    629.483604
PC25  10760.776032  13825.083672 -21730.036385    263.309879
PC26 -15565.857292  22252.608325   6321.625634   -210.998374
PC27   8610.086791 -14936.936061  21926.863421    232.940845
PC28  18501.315506   1847.943272  20818.102788    175.933071
PC29 -18963.057161 -19531.523688  -6140.795148    205.874332
PC30  -6818.712805 -24290.191957  11903.422397     -9.026120
PC32  18563.006328 -12529.185820 -16636.939332   -537.246747
PC33  20696.936183   9577.161535  16074.419105   -943.475016
PC34   7996.347325  24541.613236 -10637.339075    310.760701
PC35 -18573.087006  -1004.071810 -20799.576057    495.334584
PC36  -9819.443333 -14901.661815  21473.535721   -120.036425
PC37  16370.093596 -21522.883339  -6953.006686   -899.084361
PC38 -22779.402637  34595.070111   7419.069654    119.881651
PC39  -6229.840315  33466.273716  25083.307493     -5.804166
PC40 -15963.189685  19360.406729 -33912.038746    -45.301822
PC41  27856.725606  -1626.112107    155.025013   -871.685401
PC42    945.340600  15686.127076  23097.687947   -492.713076
PC43  18634.090409  20107.401197   5266.406341     49.651577
PC44  -8288.609385  15209.129981 -21893.299918    303.086734
PC45 -18649.125072   5076.518034  20112.641111    -49.209763
PC46   3815.039620 -25280.092044  11228.978702   -102.405639
PE02  26846.268251 -11316.503990  -5302.533532     81.247282
PE03  23212.738862  -1598.432959 -18303.300700    -75.721935
PE04  -6513.718297  15788.050881  24175.581391   -265.218258
PE05  26323.113411  13414.606730  -1857.475501   4694.183735
PE07 -13654.188488 -20730.526317 -16128.866644    -89.598432
PE08   7030.564821 -15361.110052 -24312.642102   -182.195204
PE09  13587.081365  20635.826631  16289.585139   -239.764085
PE10  -1113.835286  29493.908614  -2164.783009   -581.427200
PE11   5531.955019  27873.210758   8295.069349   3230.109556
PE12  -7030.593748  26519.400023 -11120.765877   -791.247279
PE13  -5101.487870 -28143.332877  -7613.342481    -19.615291
PE15   7262.313809 -26244.185162  11617.442093    -71.279088
PE19 -24399.729914   -597.220187  16742.152652  -1146.449774
PE21 -21395.934786  -3570.011001  20137.017911   -565.756769
PE24   2751.059020  17404.695414 -23794.747258   -450.213263
PE25  21158.500384   3866.558024 -20336.171988     -2.926611
PE26 -14614.616658 -12853.638044 -22293.395566    290.785860
PE27  -3267.495371 -17138.241581  23915.231450   -208.227799
PE30  16911.748146 -20361.884914  13258.718169   -689.454130
PE31 -16561.806651  20439.811099 -13554.007958    -10.579963
PE33 -15298.161167   8332.707453 -23919.871460      3.002867
PE34  15174.172999  -9057.246581  23751.148888    -79.799121
PE36  14297.229586  13550.937347  22103.200940   -148.710525
PG01  13346.465883 -10235.246668  20119.412779    163.311357
PG02  14964.577569  -3754.479786  22114.813950   -524.455623
PG03  23549.106009 -11895.642874   2342.216668      8.709823
PG04  18606.581700  -3735.704759 -18625.857868    222.095911
PG05 -22229.367806   2505.651443 -14570.129728   -151.661803
PG06  -6523.202789 -23569.072143 -10172.222570    496.805232
PG07   5804.148670 -24144.157672  -8246.367965      4.690338
PG08  23629.575446   2831.449064  12134.692810   -153.754525
PG09   8589.512592 -12774.658103 -21735.469702      7.104137
PG10     37.517110  16304.952257  21085.046178    -62.715122
PG11 -12165.831976 -14648.376944 -18515.396267   -474.313131
PG12 -24468.257946   9608.344067   3239.301321   -450.605268
PG13 -22623.098523 -13135.972130   5012.423816    598.876758
PG14   4040.736880 -17910.162113  19153.176595    252.764988
PG15 -23734.594193      9.911068  11646.839939    100.474081
PG16  19521.092495   4567.212024 -17965.711610   -416.091955
PG17  -5667.969105 -18702.227213  18361.796297    722.879238
PG18  -5239.197363  24910.693469  -7223.995223   -488.628865
PG19 -14205.041295 -19606.960528  11120.318007    403.550781
PG20 -14380.012173  -7426.839325 -20979.440331    399.923763
PG21  15541.531625    833.849462  22075.574545    143.367419
PG22  -2937.787795 -15434.178528  21889.482960     77.744689
PG23 -12623.584156  18804.891730  13733.289694    104.654446
PG24 -15059.721768   4859.635447  20893.828320   -379.041316
PG25 -18356.045443  17512.084402  -7697.522793    478.836415
PG26  12106.897107  10761.638777 -21221.172464    214.246812
PG27  23312.269781  13204.071421   -106.877423    -74.537349
PG28   6612.880802  24425.270704  -8100.078612    -53.972673
PG29  -9986.982539  11249.241843 -21938.201715   -610.131088
PG30  -1091.803055 -26358.406952   1466.706079   -464.638117
PG31  10678.619909  18668.902759 -15511.644334   -226.049157
PG32  10716.242678  18680.178791  15864.959967   -589.554939
PJ02 -35854.372333  19951.910791  -5141.918965     -0.283927
PJ03 -19303.809699  27308.192966 -21051.539587     -9.445344
PJ04 -28299.255057  28503.321166  18941.197248     72.935628
PR01  25250.574377   3218.058849   1611.603402     70.608395
PR02  19938.456574  -4523.462412 -15263.013921    -22.331091
PR03   3194.866572 -10504.069454 -22985.696933     89.647774
PR04 -14817.337801 -10377.370480 -17949.712419    212.491484
PR05 -24818.560384  -4865.855007  -3186.026844    122.778757
PR07  -2126.626244  10685.621696  23097.856489     69.884047
PR08  15076.729393  10360.210612  17850.598506    -73.421188
PR09 -17077.746127  17267.262304   7946.681775    155.082216
PR11   1527.681747  14616.096173 -20845.411575   -215.725339
PR12  14308.046845  -2382.945051 -20965.637140     33.773978
PR13  17419.815822 -15675.792777 -10097.988224    -41.674481
PR14  10182.828104 -21457.186276   9291.161003     25.604397
PR15  -2612.256122 -13673.376466  21389.803523     84.492659
PR16 -14057.298939   2259.877467  21178.920013     20.933704
PR17  -2513.694906 -21737.610715  13161.844166     37.869641
PR18 -10673.579696 -22948.403647  -2962.932857    113.634757
PR19 -13127.747540 -14240.818790 -16596.213267   -255.891758
PR20  -8292.824313   7164.955321 -23020.904892   -104.088967
PR21   2766.514844  21978.520724 -12612.038535    -56.005051
PR22  10466.829299  22920.758035   4036.040853     95.139032
PR24   8183.729650  -8233.300395  22739.782657    -33.450381
PR25   1432.256772  21864.016494 -13030.726190     -3.857140
PR26  14527.593000  10364.925385  18233.903112    -15.243054
EOF
